[{"OBJECT_NAME":"NUSAT-44 (MARIA MITCHELL)","OBJECT_ID":"2024-043AA","EPOCH":"2026-03-09T22:12:18.524160","MEAN_MOTION":15.29764305,"ECCENTRICITY":0.0007331,"INCLINATION":97.5299,"RA_OF_ASC_NODE":207.7691,"ARG_OF_PERICENTER":214.9017,"MEAN_ANOMALY":145.1743,"EPHEMERIS_TYPE":0,"CLASSIFICATION_TYPE":"U","NORAD_CAT_ID":59122,"ELEMENT_SET_NO":999,"REV_AT_EPOCH":11209,"BSTAR":0.00061063193,"MEAN_MOTION_DOT":0.00017562,"MEAN_MOTION_DDOT":0},{"OBJECT_NAME":"STARLINK-31999","OBJECT_ID":"2024-117L","EPOCH":"2026-03-09T07:17:03.273504","MEAN_MOTION":15.30197018,"ECCENTRICITY":0.00013135,"INCLINATION":53.1615,"RA_OF_ASC_NODE":39.1798,"ARG_OF_PERICENTER":95.3004,"MEAN_ANOMALY":264.8147,"EPHEMERIS_TYPE":0,"CLASSIFICATION_TYPE":"U","NORAD_CAT_ID":60101,"ELEMENT_SET_NO":999,"REV_AT_EPOCH":9682,"BSTAR":4.4260469e-5,"MEAN_MOTION_DOT":9.52e-6,"MEAN_MOTION_DDOT":0}]
